YUZGU 7 (RS1S)          
1 53309U 98067TU  22248.53664992  .00047069  00000+0  73929-3 0  9990
2 53309  51.6411 298.0180 0000910 211.1017 148.9919 15.53170101  7148
YUZGU 11 (RS5S)         
1 53310U 98067TV  22248.53770341  .00046601  00000+0  73470-3 0  9990
2 53310  51.6415 298.0268 0000703 214.5840 145.5104 15.53070308  7172
YUZGU 12 (RS6S)         
1 53311U 98067TW  22248.53371020  .00048900  00000+0  76331-3 0  9995
2 53311  51.6410 297.9981 0000918 111.5435 248.5654 15.53325121  7194
TSIOLKOVSKY-RYAZAN 1 (*)
1 53312U 98067TX  22248.53508604  .00047656  00000+0  74691-3 0  9990
2 53312  51.6415 298.0082 0001090 218.5829 141.5083 15.53224163  7137
TSIOLKOVSKY-RYAZAN 2 (*)
1 53313U 98067TY  22248.53382265  .00047733  00000+0  74718-3 0  9990
2 53313  51.6415 298.0004 0000731 244.0057 116.0858 15.53258270  7188
YUZGU 10 (RS4S)         
1 53321U 98067TZ  22248.53854641  .00047980  00000+0  75544-3 0  9993
2 53321  51.6417 298.0337 0000587 171.0685 189.0315 15.53094145  7180
YUZGU UA                
1 53322U 98067UA  22248.53777427  .00048145  00000+0  75658-3 0  9990
2 53322  51.6414 298.0267 0000632 150.4110 209.6917 15.53146240  7131
HSU-SAT1                
1 53462U 98067UB  22248.49444651  .00037199  00000+0  60905-3 0  9996
2 53462  51.6408 298.4844 0005628 226.6477 133.4045 15.52108328  3750
