<?xml version="1.0" encoding="UTF-8"?>
<ndm xmlns:xsi="http://www.w3.org/2001/XMLSchema-instance" xsi:noNamespaceSchemaLocation="https://sanaregistry.org/r/ndmxml_unqualified/ndmxml-2.0.0-master-2.0.xsd">
<omm id="CCSDS_OMM_VERS" version="2.0">
<header><CREATION_DATE/><ORIGINATOR/></header><body><segment><metadata><OBJECT_NAME>YUZGU 7 (RS1S)</OBJECT_NAME><OBJECT_ID>1998-067TU</OBJECT_ID><CENTER_NAME>EARTH</CENTER_NAME><REF_FRAME>TEME</REF_FRAME><TIME_SYSTEM>UTC</TIME_SYSTEM><MEAN_ELEMENT_THEORY>SGP4</MEAN_ELEMENT_THEORY></metadata><data><meanElements><EPOCH>2022-09-05T12:52:46.553088</EPOCH><MEAN_MOTION>15.53170101</MEAN_MOTION><ECCENTRICITY>.000091</ECCENTRICITY><INCLINATION>51.6411</INCLINATION><RA_OF_ASC_NODE>298.0180</RA_OF_ASC_NODE><ARG_OF_PERICENTER>211.1017</ARG_OF_PERICENTER><MEAN_ANOMALY>148.9919</MEAN_ANOMALY></meanElements><tleParameters><EPHEMERIS_TYPE>0</EPHEMERIS_TYPE><CLASSIFICATION_TYPE>U</CLASSIFICATION_TYPE><NORAD_CAT_ID>53309</NORAD_CAT_ID><ELEMENT_SET_NO>999</ELEMENT_SET_NO><REV_AT_EPOCH>714</REV_AT_EPOCH><BSTAR>.73929E-3</BSTAR><MEAN_MOTION_DOT>.47069E-3</MEAN_MOTION_DOT><MEAN_MOTION_DDOT>0</MEAN_MOTION_DDOT></tleParameters></data></segment></body></omm>
<omm id="CCSDS_OMM_VERS" version="2.0">
<header><CREATION_DATE/><ORIGINATOR/></header><body><segment><metadata><OBJECT_NAME>YUZGU 11 (RS5S)</OBJECT_NAME><OBJECT_ID>1998-067TV</OBJECT_ID><CENTER_NAME>EARTH</CENTER_NAME><REF_FRAME>TEME</REF_FRAME><TIME_SYSTEM>UTC</TIME_SYSTEM><MEAN_ELEMENT_THEORY>SGP4</MEAN_ELEMENT_THEORY></metadata><data><meanElements><EPOCH>2022-09-05T12:54:17.574624</EPOCH><MEAN_MOTION>15.53070308</MEAN_MOTION><ECCENTRICITY>.0000703</ECCENTRICITY><INCLINATION>51.6415</INCLINATION><RA_OF_ASC_NODE>298.0268</RA_OF_ASC_NODE><ARG_OF_PERICENTER>214.5840</ARG_OF_PERICENTER><MEAN_ANOMALY>145.5104</MEAN_ANOMALY></meanElements><tleParameters><EPHEMERIS_TYPE>0</EPHEMERIS_TYPE><CLASSIFICATION_TYPE>U</CLASSIFICATION_TYPE><NORAD_CAT_ID>53310</NORAD_CAT_ID><ELEMENT_SET_NO>999</ELEMENT_SET_NO><REV_AT_EPOCH>717</REV_AT_EPOCH><BSTAR>.7347E-3</BSTAR><MEAN_MOTION_DOT>.46601E-3</MEAN_MOTION_DOT><MEAN_MOTION_DDOT>0</MEAN_MOTION_DDOT></tleParameters></data></segment></body></omm>
<omm id="CCSDS_OMM_VERS" version="2.0">
<header><CREATION_DATE/><ORIGINATOR/></header><body><segment><metadata><OBJECT_NAME>YUZGU 12 (RS6S)</OBJECT_NAME><OBJECT_ID>1998-067TW</OBJECT_ID><CENTER_NAME>EARTH</CENTER_NAME><REF_FRAME>TEME</REF_FRAME><TIME_SYSTEM>UTC</TIME_SYSTEM><MEAN_ELEMENT_THEORY>SGP4</MEAN_ELEMENT_THEORY></metadata><data><meanElements><EPOCH>2022-09-05T12:48:32.561280</EPOCH><MEAN_MOTION>15.53325121</MEAN_MOTION><ECCENTRICITY>.0000918</ECCENTRICITY><INCLINATION>51.6410</INCLINATION><RA_OF_ASC_NODE>297.9981</RA_OF_ASC_NODE><ARG_OF_PERICENTER>111.5435</ARG_OF_PERICENTER><MEAN_ANOMALY>248.5654</MEAN_ANOMALY></meanElements><tleParameters><EPHEMERIS_TYPE>0</EPHEMERIS_TYPE><CLASSIFICATION_TYPE>U</CLASSIFICATION_TYPE><NORAD_CAT_ID>53311</NORAD_CAT_ID><ELEMENT_SET_NO>999</ELEMENT_SET_NO><REV_AT_EPOCH>719</REV_AT_EPOCH><BSTAR>.76331E-3</BSTAR><MEAN_MOTION_DOT>.489E-3</MEAN_MOTION_DOT><MEAN_MOTION_DDOT>0</MEAN_MOTION_DDOT></tleParameters></data></segment></body></omm>
<omm id="CCSDS_OMM_VERS" version="2.0">
<header><CREATION_DATE/><ORIGINATOR/></header><body><segment><metadata><OBJECT_NAME>TSIOLKOVSKY-RYAZAN 1 (RS9S)</OBJECT_NAME><OBJECT_ID>1998-067TX</OBJECT_ID><CENTER_NAME>EARTH</CENTER_NAME><REF_FRAME>TEME</REF_FRAME><TIME_SYSTEM>UTC</TIME_SYSTEM><MEAN_ELEMENT_THEORY>SGP4</MEAN_ELEMENT_THEORY></metadata><data><meanElements><EPOCH>2022-09-05T12:50:31.433856</EPOCH><MEAN_MOTION>15.53224163</MEAN_MOTION><ECCENTRICITY>.000109</ECCENTRICITY><INCLINATION>51.6415</INCLINATION><RA_OF_ASC_NODE>298.0082</RA_OF_ASC_NODE><ARG_OF_PERICENTER>218.5829</ARG_OF_PERICENTER><MEAN_ANOMALY>141.5083</MEAN_ANOMALY></meanElements><tleParameters><EPHEMERIS_TYPE>0</EPHEMERIS_TYPE><CLASSIFICATION_TYPE>U</CLASSIFICATION_TYPE><NORAD_CAT_ID>53312</NORAD_CAT_ID><ELEMENT_SET_NO>999</ELEMENT_SET_NO><REV_AT_EPOCH>713</REV_AT_EPOCH><BSTAR>.74691E-3</BSTAR><MEAN_MOTION_DOT>.47656E-3</MEAN_MOTION_DOT><MEAN_MOTION_DDOT>0</MEAN_MOTION_DDOT></tleParameters></data></segment></body></omm>
<omm id="CCSDS_OMM_VERS" version="2.0">
<header><CREATION_DATE/><ORIGINATOR/></header><body><segment><metadata><OBJECT_NAME>TSIOLKOVSKY-RYAZAN 2 (RS12S)</OBJECT_NAME><OBJECT_ID>1998-067TY</OBJECT_ID><CENTER_NAME>EARTH</CENTER_NAME><REF_FRAME>TEME</REF_FRAME><TIME_SYSTEM>UTC</TIME_SYSTEM><MEAN_ELEMENT_THEORY>SGP4</MEAN_ELEMENT_THEORY></metadata><data><meanElements><EPOCH>2022-09-05T12:48:42.276960</EPOCH><MEAN_MOTION>15.53258270</MEAN_MOTION><ECCENTRICITY>.0000731</ECCENTRICITY><INCLINATION>51.6415</INCLINATION><RA_OF_ASC_NODE>298.0004</RA_OF_ASC_NODE><ARG_OF_PERICENTER>244.0057</ARG_OF_PERICENTER><MEAN_ANOMALY>116.0858</MEAN_ANOMALY></meanElements><tleParameters><EPHEMERIS_TYPE>0</EPHEMERIS_TYPE><CLASSIFICATION_TYPE>U</CLASSIFICATION_TYPE><NORAD_CAT_ID>53313</NORAD_CAT_ID><ELEMENT_SET_NO>999</ELEMENT_SET_NO><REV_AT_EPOCH>718</REV_AT_EPOCH><BSTAR>.74718E-3</BSTAR><MEAN_MOTION_DOT>.47733E-3</MEAN_MOTION_DOT><MEAN_MOTION_DDOT>0</MEAN_MOTION_DDOT></tleParameters></data></segment></body></omm>
<omm id="CCSDS_OMM_VERS" version="2.0">
<header><CREATION_DATE/><ORIGINATOR/></header><body><segment><metadata><OBJECT_NAME>YUZGU 10 (RS4S)</OBJECT_NAME><OBJECT_ID>1998-067TZ</OBJECT_ID><CENTER_NAME>EARTH</CENTER_NAME><REF_FRAME>TEME</REF_FRAME><TIME_SYSTEM>UTC</TIME_SYSTEM><MEAN_ELEMENT_THEORY>SGP4</MEAN_ELEMENT_THEORY></metadata><data><meanElements><EPOCH>2022-09-05T12:55:30.409824</EPOCH><MEAN_MOTION>15.53094145</MEAN_MOTION><ECCENTRICITY>.0000587</ECCENTRICITY><INCLINATION>51.6417</INCLINATION><RA_OF_ASC_NODE>298.0337</RA_OF_ASC_NODE><ARG_OF_PERICENTER>171.0685</ARG_OF_PERICENTER><MEAN_ANOMALY>189.0315</MEAN_ANOMALY></meanElements><tleParameters><EPHEMERIS_TYPE>0</EPHEMERIS_TYPE><CLASSIFICATION_TYPE>U</CLASSIFICATION_TYPE><NORAD_CAT_ID>53321</NORAD_CAT_ID><ELEMENT_SET_NO>999</ELEMENT_SET_NO><REV_AT_EPOCH>718</REV_AT_EPOCH><BSTAR>.75544E-3</BSTAR><MEAN_MOTION_DOT>.4798E-3</MEAN_MOTION_DOT><MEAN_MOTION_DDOT>0</MEAN_MOTION_DDOT></tleParameters></data></segment></body></omm>
<omm id="CCSDS_OMM_VERS" version="2.0">
<header><CREATION_DATE/><ORIGINATOR/></header><body><segment><metadata><OBJECT_NAME>YUZGU UA</OBJECT_NAME><OBJECT_ID>1998-067UA</OBJECT_ID><CENTER_NAME>EARTH</CENTER_NAME><REF_FRAME>TEME</REF_FRAME><TIME_SYSTEM>UTC</TIME_SYSTEM><MEAN_ELEMENT_THEORY>SGP4</MEAN_ELEMENT_THEORY></metadata><data><meanElements><EPOCH>2022-09-05T12:54:23.696928</EPOCH><MEAN_MOTION>15.53146240</MEAN_MOTION><ECCENTRICITY>.0000632</ECCENTRICITY><INCLINATION>51.6414</INCLINATION><RA_OF_ASC_NODE>298.0267</RA_OF_ASC_NODE><ARG_OF_PERICENTER>150.4110</ARG_OF_PERICENTER><MEAN_ANOMALY>209.6917</MEAN_ANOMALY></meanElements><tleParameters><EPHEMERIS_TYPE>0</EPHEMERIS_TYPE><CLASSIFICATION_TYPE>U</CLASSIFICATION_TYPE><NORAD_CAT_ID>53322</NORAD_CAT_ID><ELEMENT_SET_NO>999</ELEMENT_SET_NO><REV_AT_EPOCH>713</REV_AT_EPOCH><BSTAR>.75658E-3</BSTAR><MEAN_MOTION_DOT>.48145E-3</MEAN_MOTION_DOT><MEAN_MOTION_DDOT>0</MEAN_MOTION_DDOT></tleParameters></data></segment></body></omm>
<omm id="CCSDS_OMM_VERS" version="2.0">
<header><CREATION_DATE/><ORIGINATOR/></header><body><segment><metadata><OBJECT_NAME>HSU-SAT1</OBJECT_NAME><OBJECT_ID>1998-067UB</OBJECT_ID><CENTER_NAME>EARTH</CENTER_NAME><REF_FRAME>TEME</REF_FRAME><TIME_SYSTEM>UTC</TIME_SYSTEM><MEAN_ELEMENT_THEORY>SGP4</MEAN_ELEMENT_THEORY></metadata><data><meanElements><EPOCH>2022-09-05T11:52:00.178464</EPOCH><MEAN_MOTION>15.52108328</MEAN_MOTION><ECCENTRICITY>.0005628</ECCENTRICITY><INCLINATION>51.6408</INCLINATION><RA_OF_ASC_NODE>298.4844</RA_OF_ASC_NODE><ARG_OF_PERICENTER>226.6477</ARG_OF_PERICENTER><MEAN_ANOMALY>133.4045</MEAN_ANOMALY></meanElements><tleParameters><EPHEMERIS_TYPE>0</EPHEMERIS_TYPE><CLASSIFICATION_TYPE>U</CLASSIFICATION_TYPE><NORAD_CAT_ID>53462</NORAD_CAT_ID><ELEMENT_SET_NO>999</ELEMENT_SET_NO><REV_AT_EPOCH>375</REV_AT_EPOCH><BSTAR>.60905E-3</BSTAR><MEAN_MOTION_DOT>.37199E-3</MEAN_MOTION_DOT><MEAN_MOTION_DDOT>0</MEAN_MOTION_DDOT></tleParameters></data></segment></body></omm>

</ndm>
